SHENZHOU-21 (SZ-21)     
1 66263U 25246A   25309.88817455  .00035479  00000+0  42093-3 0  9995
2 66263  41.4669 240.4931 0005999 329.5295  30.5195 15.60459509258131
CZ-2F R/B               
1 66264U 25246B   25309.24721292  .01049104  75940-5  59821-3 0  9998
2 66264  41.4649 242.5240 0090583 160.7113 199.7206 16.08965584   744
