CCSDS_OMM_VERS = 2.0
CREATION_DATE  = 
ORIGINATOR     = 

OBJECT_NAME    = SHENZHOU-21 (SZ-21)
OBJECT_ID      = 2025-246A
CENTER_NAME    = EARTH
REF_FRAME      = TEME
TIME_SYSTEM    = UTC
MEAN_ELEMENT_THEORY = SGP/SGP4

EPOCH          = 2025-11-05T21:18:58.281120
MEAN_MOTION    = 15.60459509
ECCENTRICITY   = .00059993
INCLINATION    = 41.4669
RA_OF_ASC_NODE = 240.4931
ARG_OF_PERICENTER = 329.5295
MEAN_ANOMALY   = 30.5195

EPHEMERIS_TYPE = 0
CLASSIFICATION_TYPE = U
NORAD_CAT_ID   = 66263
ELEMENT_SET_NO = 999
REV_AT_EPOCH   = 25813
BSTAR          = .42093112E-3
MEAN_MOTION_DOT = .35479E-3
MEAN_MOTION_DDOT = 0

CCSDS_OMM_VERS = 2.0
CREATION_DATE  = 
ORIGINATOR     = 

OBJECT_NAME    = CZ-2F R/B
OBJECT_ID      = 2025-246B
CENTER_NAME    = EARTH
REF_FRAME      = TEME
TIME_SYSTEM    = UTC
MEAN_ELEMENT_THEORY = SGP/SGP4

EPOCH          = 2025-11-05T05:55:59.196288
MEAN_MOTION    = 16.08965584
ECCENTRICITY   = .00905838
INCLINATION    = 41.4649
RA_OF_ASC_NODE = 242.5240
ARG_OF_PERICENTER = 160.7113
MEAN_ANOMALY   = 199.7206

EPHEMERIS_TYPE = 0
CLASSIFICATION_TYPE = U
NORAD_CAT_ID   = 66264
ELEMENT_SET_NO = 999
REV_AT_EPOCH   = 74
BSTAR          = .59820883E-3
MEAN_MOTION_DOT = .1049104E-1
MEAN_MOTION_DDOT = .7593992E-5

